IRIDIUM 7               
1 24793U 97020B   25322.80226796  .00000589  00000+0  19572-3 0  9995
2 24793  86.3933 112.1370 0001904  81.6044 278.5368 14.36075543494083
IRIDIUM 5               
1 24795U 97020D   25322.58109189  .00005353  00000+0  42427-3 0  9997
2 24795  86.3914  12.4419 0102837 304.1583  54.9927 14.96191279508532
IRIDIUM 4               
1 24796U 97020E   25322.47985637  .00000657  00000+0  21534-3 0  9994
2 24796  86.3931 109.0455 0002081  87.0144 273.1292 14.36979909494627
IRIDIUM 914             
1 24836U 97030A   25322.81441447  .00000681  00000+0  20565-3 0  9994
2 24836  86.3911 117.0530 0003584  80.5802 279.5802 14.41032579629391
IRIDIUM 16              
1 24841U 97030F   25322.45063404  .00000645  00000+0  20343-3 0  9997
2 24841  86.4021 140.5242 0000425 355.3121   4.8073 14.38852962489181
IRIDIUM 911             
1 24842U 97030G   25322.45708715  .00000852  00000+0  22461-3 0  9992
2 24842  86.4447 139.1225 0012491 308.9860  51.0230 14.47847429497404
IRIDIUM 17              
1 24870U 97034B   25322.53168852  .00000559  00000+0  17832-3 0  9998
2 24870  86.3979 169.9100 0001267 139.3268 220.8025 14.37992998485769
IRIDIUM 920             
1 24871U 97034C   25322.80279025  .00000587  00000+0  17393-3 0  9997
2 24871  86.3972 148.6837 0009661 296.7551  63.2659 14.41694691488852
